[{"OBJECT_NAME":"TIANMU-1 09","OBJECT_ID":"2023-101C","EPOCH":"2026-03-09T22:17:34.703232","MEAN_MOTION":15.29080822,"ECCENTRICITY":0.00049013,"INCLINATION":97.267,"RA_OF_ASC_NODE":121.1263,"ARG_OF_PERICENTER":139.4293,"MEAN_ANOMALY":220.7314,"EPHEMERIS_TYPE":0,"CLASSIFICATION_TYPE":"U","NORAD_CAT_ID":57401,"ELEMENT_SET_NO":999,"REV_AT_EPOCH":14647,"BSTAR":0.00030540035,"MEAN_MOTION_DOT":8.553e-5,"MEAN_MOTION_DDOT":0},{"OBJECT_NAME":"STARLINK-32605","OBJECT_ID":"2024-207K","EPOCH":"2026-03-09T22:44:30.431616","MEAN_MOTION":15.27605453,"ECCENTRICITY":4.399e-5,"INCLINATION":42.9992,"RA_OF_ASC_NODE":280.0992,"ARG_OF_PERICENTER":303.357,"MEAN_ANOMALY":56.724,"EPHEMERIS_TYPE":0,"CLASSIFICATION_TYPE":"U","NORAD_CAT_ID":61921,"ELEMENT_SET_NO":999,"REV_AT_EPOCH":7476,"BSTAR":0.0015555166,"MEAN_MOTION_DOT":0.00042824,"MEAN_MOTION_DDOT":0}]
